OBJECT_NAME,OBJECT_ID,EPOCH,MEAN_MOTION,ECCENTRICITY,INCLINATION,RA_OF_ASC_NODE,ARG_OF_PERICENTER,MEAN_ANOMALY,EPHEMERIS_TYPE,CLASSIFICATION_TYPE,NORAD_CAT_ID,ELEMENT_SET_NO,REV_AT_EPOCH,BSTAR,MEAN_MOTION_DOT,MEAN_MOTION_DDOT
TIANMU-1 21,2023-208C,2026-07-20T21:02:51.492768,15.35615912,.0007259,97.4529,321.8644,183.6630,176.4561,0,U,58662,999,14273,.18653E-3,.638E-4,0
TIANMU-1 22,2023-208D,2026-07-20T20:34:08.229216,15.31476160,.0003285,97.4521,318.2517,195.3919,164.7222,0,U,58663,999,14248,.17207E-3,.5152E-4,0
TIANMU-1 15,2024-004A,2026-07-20T14:04:33.062592,15.26946470,.00065074,97.4676,27.7779,206.6767,153.4138,0,U,58700,999,14087,.12469022E-3,.3225E-4,0
TIANMU-1 16,2024-004B,2026-07-20T15:23:13.002144,15.27049787,.00047903,97.4625,27.0462,221.1219,138.9659,0,U,58701,999,14088,.11791907E-3,.3055E-4,0
TIANMU-1 17,2024-004C,2026-07-20T15:02:19.364928,15.27047493,.00042173,97.4652,27.5288,226.3501,133.7388,0,U,58702,999,14087,.12166148E-3,.3154E-4,0
TIANMU-1 18,2024-004D,2026-07-20T14:28:19.601760,15.26962023,.00042436,97.4668,27.7684,201.8777,158.2281,0,U,58703,999,14087,.12288274E-3,.3178E-4,0
INSAT-3DS,2024-033A,2026-07-20T20:21:44.434080,1.00270778,.0001294,0.0760,263.7096,220.1689,202.2239,0,U,58990,999,4740,0,-.156E-5,0
METEOR-M2 4,2024-039A,2026-07-20T21:03:11.724192,14.22432608,.000823,98.7029,160.7554,74.7074,285.5013,0,U,59051,999,12405,.28861E-4,.21E-6,0
GOES 19,2024-119A,2026-07-20T11:03:40.228992,1.00272602,.00002879,0.0196,138.2572,48.2970,202.4001,0,U,60133,999,729,0,-.25E-5,0
MTG-S1,2025-143A,2026-07-20T07:59:42.669600,1.00275165,.00032472,0.5815,346.3135,258.0118,173.3546,0,U,64723,999,375,0,-.8E-7,0
METOP-SGA1,2025-172A,2026-07-14T18:20:46.629312,14.19819127,.00070989,98.6631,254.9090,333.3306,26.7504,0,U,65159,999,4770,.2916334E-4,.19E-6,0
FENGYUN 3H,2025-219A,2026-07-20T19:03:48.502368,14.19925299,.0001023,98.6770,141.9111,62.0460,298.0820,0,U,65815,999,4215,.26132E-4,.12E-6,0
